{
  "schema": "int-temerity-real-tle-snapshot/v1",
  "source": "celestrak",
  "group": "STARLINK",
  "format": "celestrak-gp-json",
  "source_url": "https://celestrak.org/NORAD/elements/gp.php?NAME=STARLINK&FORMAT=JSON",
  "downloaded_at": "2026-07-03T12:25:16.552Z",
  "generated_at": "2026-07-03T12:25:35.465Z",
  "fingerprint": "eb0f9db4",
  "shell_id": "starlink-real-43deg-490km",
  "catalog_count": 10717,
  "shell_count": 3264,
  "selected_count": 1584,
  "mean_altitude_km": 490.23,
  "mean_inclination_deg": 43.0019,
  "mean_mean_motion_rev_per_day": 15.27566421,
  "layout": {
    "planes": 72,
    "satellites_per_plane": 22,
    "selection_strategy": "largest-shell-raan-clusters-even-slot-sampling",
    "raan_cluster_threshold_deg": 2.5,
    "selected_shell_key": "43.0deg-500km"
  },
  "satellites": [
    {
      "satellite_id": "P55-S08",
      "norad_id": 66343,
      "satellite_name": "STARLINK-35467",
      "cospar_id": "2025-253AA",
      "shell_id": "starlink-real-43deg-490km",
      "plane_id": 54,
      "slot_id": 7,
      "epoch": "2026-07-02T17:12:40.025088",
      "inclination": 43.0003,
      "raan": 283.13779999999997,
      "eccentricity": 0.0001512,
      "argument_of_perigee": 285.8919000000001,
      "mean_anomaly": 74.17660000000001,
      "mean_motion": 15.27547808,
      "bstar": 0.00074799,
      "status": "active",
      "raw_omm": {
        "OBJECT_NAME": "STARLINK-35467",
        "OBJECT_ID": "2025-253AA",
        "EPOCH": "2026-07-02T17:12:40.025088",
        "MEAN_MOTION": 15.27547808,
        "ECCENTRICITY": 0.0001512,
        "INCLINATION": 43.0003,
        "RA_OF_ASC_NODE": 283.1378,
        "ARG_OF_PERICENTER": 285.8919,
        "MEAN_ANOMALY": 74.1766,
        "EPHEMERIS_TYPE": 0,
        "CLASSIFICATION_TYPE": "U",
        "NORAD_CAT_ID": 66343,
        "ELEMENT_SET_NO": 999,
        "REV_AT_EPOCH": 3783,
        "BSTAR": 0.00074799,
        "MEAN_MOTION_DOT": 0.00020358,
        "MEAN_MOTION_DDOT": 0
      },
      "source": "celestrak",
      "source_url": "https://celestrak.org/NORAD/elements/gp.php?NAME=STARLINK&FORMAT=JSON",
      "catalog_fingerprint": "eb0f9db4"
    },
    {
      "satellite_id": "P55-S09",
      "norad_id": 56503,
      "satellite_name": "STARLINK-5775",
      "cospar_id": "2023-065A",
      "shell_id": "starlink-real-43deg-490km",
      "plane_id": 54,
      "slot_id": 8,
      "epoch": "2026-07-02T17:08:50.868096",
      "inclination": 43.0033,
      "raan": 282.6912,
      "eccentricity": 0.0001498,
      "argument_of_perigee": 268.53960000000006,
      "mean_anomaly": 91.52840000000003,
      "mean_motion": 15.27577429,
      "bstar": -0.000018463,
      "status": "active",
      "raw_omm": {
        "OBJECT_NAME": "STARLINK-5775",
        "OBJECT_ID": "2023-065A",
        "EPOCH": "2026-07-02T17:08:50.868096",
        "MEAN_MOTION": 15.27577429,
        "ECCENTRICITY": 0.0001498,
        "INCLINATION": 43.0033,
        "RA_OF_ASC_NODE": 282.6912,
        "ARG_OF_PERICENTER": 268.5396,
        "MEAN_ANOMALY": 91.5284,
        "EPHEMERIS_TYPE": 0,
        "CLASSIFICATION_TYPE": "U",
        "NORAD_CAT_ID": 56503,
        "ELEMENT_SET_NO": 999,
        "REV_AT_EPOCH": 17419,
        "BSTAR": -0.000018463,
        "MEAN_MOTION_DOT": -0.0000077,
        "MEAN_MOTION_DDOT": 0
      },
      "source": "celestrak",
      "source_url": "https://celestrak.org/NORAD/elements/gp.php?NAME=STARLINK&FORMAT=JSON",
      "catalog_fingerprint": "eb0f9db4"
    },
    {
      "satellite_id": "P55-S10",
      "norad_id": 66341,
      "satellite_name": "STARLINK-35522",
      "cospar_id": "2025-253Y",
      "shell_id": "starlink-real-43deg-490km",
      "plane_id": 54,
      "slot_id": 9,
      "epoch": "2026-07-02T13:55:05.366208",
      "inclination": 43.0004,
      "raan": 283.82629999999995,
      "eccentricity": 0.0001523,
      "argument_of_perigee": 257.1018,
      "mean_anomaly": 102.96629999999999,
      "mean_motion": 15.27570699,
      "bstar": 0.00087727,
      "status": "active",
      "raw_omm": {
        "OBJECT_NAME": "STARLINK-35522",
        "OBJECT_ID": "2025-253Y",
        "EPOCH": "2026-07-02T13:55:05.366208",
        "MEAN_MOTION": 15.27570699,
        "ECCENTRICITY": 0.0001523,
        "INCLINATION": 43.0004,
        "RA_OF_ASC_NODE": 283.8263,
        "ARG_OF_PERICENTER": 257.1018,
        "MEAN_ANOMALY": 102.9663,
        "EPHEMERIS_TYPE": 0,
        "CLASSIFICATION_TYPE": "U",
        "NORAD_CAT_ID": 66341,
        "ELEMENT_SET_NO": 999,
        "REV_AT_EPOCH": 3781,
        "BSTAR": 0.00087727,
        "MEAN_MOTION_DOT": 0.0002395,
        "MEAN_MOTION_DDOT": 0
      },
      "source": "celestrak",
      "source_url": "https://celestrak.org/NORAD/elements/gp.php?NAME=STARLINK&FORMAT=JSON",
      "catalog_fingerprint": "eb0f9db4"
    },
    {
      "satellite_id": "P55-S11",
      "norad_id": 59799,
      "satellite_name": "STARLINK-31810",
      "cospar_id": "2024-093T",
      "shell_id": "starlink-real-43deg-490km",
      "plane_id": 54,
      "slot_id": 10,
      "epoch": "2026-07-01T23:42:48.499776",
      "inclination": 43.0019,
      "raan": 283.58950000000004,
      "eccentricity": 0.00012055,
      "argument_of_perigee": 263.46849999999995,
      "mean_anomaly": 96.60300000000001,
      "mean_motion": 15.27573701,
      "bstar": -0.00010195111,
      "status": "active",
      "raw_omm": {
        "OBJECT_NAME": "STARLINK-31810",
        "OBJECT_ID": "2024-093T",
        "EPOCH": "2026-07-01T23:42:48.499776",
        "MEAN_MOTION": 15.27573701,
        "ECCENTRICITY": 0.00012055,
        "INCLINATION": 43.0019,
        "RA_OF_ASC_NODE": 283.5895,
        "ARG_OF_PERICENTER": 263.4685,
        "MEAN_ANOMALY": 96.603,
        "EPHEMERIS_TYPE": 0,
        "CLASSIFICATION_TYPE": "U",
        "NORAD_CAT_ID": 59799,
        "ELEMENT_SET_NO": 999,
        "REV_AT_EPOCH": 12017,
        "BSTAR": -0.00010195111,
        "MEAN_MOTION_DOT": -0.00003066,
        "MEAN_MOTION_DDOT": 0
      },
      "source": "celestrak",
      "source_url": "https://celestrak.org/NORAD/elements/gp.php?NAME=STARLINK&FORMAT=JSON",
      "catalog_fingerprint": "eb0f9db4"
    },
    {
      "satellite_id": "P55-S12",
      "norad_id": 66342,
      "satellite_name": "STARLINK-35535",
      "cospar_id": "2025-253Z",
      "shell_id": "starlink-real-43deg-490km",
      "plane_id": 54,
      "slot_id": 11,
      "epoch": "2026-07-02T15:21:50.827968",
      "inclination": 43.0003,
      "raan": 283.41650000000004,
      "eccentricity": 0.000116,
      "argument_of_perigee": 259.58899999999994,
      "mean_anomaly": 100.48309999999998,
      "mean_motion": 15.27570736,
      "bstar": 0.00095942,
      "status": "active",
      "raw_omm": {
        "OBJECT_NAME": "STARLINK-35535",
        "OBJECT_ID": "2025-253Z",
        "EPOCH": "2026-07-02T15:21:50.827968",
        "MEAN_MOTION": 15.27570736,
        "ECCENTRICITY": 0.000116,
        "INCLINATION": 43.0003,
        "RA_OF_ASC_NODE": 283.4165,
        "ARG_OF_PERICENTER": 259.589,
        "MEAN_ANOMALY": 100.4831,
        "EPHEMERIS_TYPE": 0,
        "CLASSIFICATION_TYPE": "U",
        "NORAD_CAT_ID": 66342,
        "ELEMENT_SET_NO": 999,
        "REV_AT_EPOCH": 3782,
        "BSTAR": 0.00095942,
        "MEAN_MOTION_DOT": 0.00026226,
        "MEAN_MOTION_DDOT": 0
      },
      "source": "celestrak",
      "source_url": "https://celestrak.org/NORAD/elements/gp.php?NAME=STARLINK&FORMAT=JSON",
      "catalog_fingerprint": "eb0f9db4"
    },
    {
      "satellite_id": "P55-S13",
      "norad_id": 66335,
      "satellite_name": "STARLINK-35417",
      "cospar_id": "2025-253S",
      "shell_id": "starlink-real-43deg-490km",
      "plane_id": 54,
      "slot_id": 12,
      "epoch": "2026-07-02T16:50:27.159072",
      "inclination": 42.9995,
      "raan": 283.02070000000003,
      "eccentricity": 0.0001477,
      "argument_of_perigee": 261.04279999999994,
      "mean_anomaly": 99.0256,
      "mean_motion": 15.27560607,
      "bstar": 0.00035493,
      "status": "active",
      "raw_omm": {
        "OBJECT_NAME": "STARLINK-35417",
        "OBJECT_ID": "2025-253S",
        "EPOCH": "2026-07-02T16:50:27.159072",
        "MEAN_MOTION": 15.27560607,
        "ECCENTRICITY": 0.0001477,
        "INCLINATION": 42.9995,
        "RA_OF_ASC_NODE": 283.0207,
        "ARG_OF_PERICENTER": 261.0428,
        "MEAN_ANOMALY": 99.0256,
        "EPHEMERIS_TYPE": 0,
        "CLASSIFICATION_TYPE": "U",
        "NORAD_CAT_ID": 66335,
        "ELEMENT_SET_NO": 999,
        "REV_AT_EPOCH": 3783,
        "BSTAR": 0.00035493,
        "MEAN_MOTION_DOT": 0.00009512,
        "MEAN_MOTION_DDOT": 0
      },
      "source": "celestrak",
      "source_url": "https://celestrak.org/NORAD/elements/gp.php?NAME=STARLINK&FORMAT=JSON",
      "catalog_fingerprint": "eb0f9db4"
    }
  ]
}